Domain,Location on Site,Company,Vertical,Quantcast,Alexa,Telephones,Emails,Twitter,Facebook,LinkedIn,Google,Pinterest,GitHub,Instagram,Vk,Vimeo,Youtube,People,City,State,Zip,Country,First Detected,Last Found,First Indexed,Last Indexed
examiner.com,examiner.com,AXS Digital Group,,31,2409,"ph:","legal@examiner.com;letters@examiner.com;lzzuc17lgc@examiner.com;gztmjsamha@examiner.com;afxq5u-hqq@examiner.com;nwpogw570a@examiner.com;nj65lqpjpq@examiner.com;con7d_z9s1@examiner.com;iao7seigqe@examiner.com;j-lgex45ps@examiner.com;hy2iyiktw3@examiner.com;dhuqa3sn_r@examiner.com;avaykogf-m@examiner.com;ghkfppvnnm@examiner.com;ztvljmpm_j@examiner.com;duoybqe9ex@examiner.com;savks37pd6@examiner.com;d2opkpwkho@examiner.com;r_turxdtgl@examiner.com;ajgbaczok4@examiner.com",twitter.com/examinercom,facebook.com/examinercom,linkedin.com/company/examiner.com,google.com/+examinercom,pinterest.com/examinercom,,,,,,"",,,,,2014-03-19,2015-12-27,2011-01-03,2015-12-27
nydailynews.com,nydailynews.com,New York Daily News,,44,856,"ph:+1-212-210-6305;+1-855-455-9140","webmaster@nydailynews.com;legal@nydailynews.com;jkemp@nydailynews.com;lgoldberg@nydailynews.com;jlemire@nydailynews.com;eeinhorn@nydailynews.com;ckatz@nydailynews.com;badams@nydailynews.com;epearson@nydailynews.com;rschapiro@nydailynews.com;jmeek@nydailynews.com;csiemaszko@nydailynews.com;lmcshane@nydailynews.com;mmehta@nydailynews.com;rparascandola@nydailynews.com;voicers@nydailynews.com;apps@nydailynews.com;agendar@nydailynews.com;jgonzalez@nydailynews.com;lcolangelo@nydailynews.com",,,,,,,,,,,"Andrew Reale - Bizdev - areale@nydailynews.com",New York City,NY,10004,US,2014-01-08,2015-12-27,2011-01-03,2015-12-27
nbcnews.com,nbcnews.com,NBCUniversal Inc,,45,512,"ph:+1-212-413-6142;+1-916-445-1254","adsales@nbcnews.com;app.feedback@nbcnews.com;appfeedback@nbcnews.com;news@nbcnews.com;phil.griffin@nbcnews.com;steve.capus@nbcnews.com;nightly@nbcnews.com;nightlynews@nbcnews.com;mtp@nbcnews.com;zmmiller@nbcnews.com;video@nbcnews.com",twitter.com/nbcnews,facebook.com/nbcnews,,google.com/+nbcnews,,,,,,,"Maury Dent - Unknown - maury.dent@nbcnews.com; Michael Galluppo - Unknown - michael.galluppo@nbcnews.com; Amy Power - Unknown - amy.power@nbcnews.com; Eric Johns - Unknown - eric.johns@nbcnews.com; Catie Liken - Unknown - catie.liken@nbcnews.com; Daniel Sircar - Unknown - daniel.sircar@nbcnews.com; Damian Geminder - Unknown - damian.geminder@nbcnews.com; Sheila Koochak - Unknown - sheila.koochak@nbcnews.com; Andi Priftani - Unknown - andi.priftani@nbcnews.com; Sharon Allen - Unknown - sharon.allen@nbcnews.com",New York City,NY,10112,US,2012-07-29,2015-12-26,2011-01-03,2015-12-26
drugs.com,drugs.com,Drugs.com,,49,1418,"ph:","sale@drugs.com;herbals@drugs.com;helpdesk@drugs.com;apps@drugs.com;ls@drugs.com;valtrex@drugs.com;philip.thornton@drugs.com;herbal@drugs.com;als@drugs.com;chalerito@drugs.com;flyinhigh@drugs.com;vioxx@drugs.com",twitter.com/drugscom,facebook.com/drugscom,,google.com/+drugscom,,,,,,youtube.com/user/drugscom,"",,,,,2014-11-12,2015-12-09,2011-01-03,2015-12-16
break.com,break.com,break.com inc,Technology And Computing,59,4209,"ph:+1-212-655-9524","youtube@break.com;licensing@break.com;powen@break.com;superfanbuilds@break.com;content@break.com;trivia@break.com;jdonatelli@break.com;halloweenpics@break.com;tips@break.com;only_rgz@break.com;gimme@break.com;hofwatch@break.com;jthomas@break.com;quottips@break.com;games@break.com;break@break.com;ng@break.com;moviefightsfans@break.com;it@break.com;diuttkoach@break.com",twitter.com/break,facebook.com/break,,google.com/+break,,,,,,,"",New York City,NY,10018,US,2014-01-23,2015-12-09,2011-01-03,2015-12-26
legacy.com,legacy.com,Legacy.com Inc,,64,1134,"ph:","busdev@legacy.com;usdev@legacy.com;ev@legacy.com;dev@legacy.com;sdev@legacy.com;content@legacy.com;rcressy@legacy.com;celebrations@legacy.com;connect@legacy.com;newspapers@legacy.com;mwinfo@legacy.com;submit@legacy.com;stopher@legacy.com;soldiers@legacy.com;a10ce@legacy.com;hrdept@legacy.com;jmills@legacy.com;scinfo@legacy.com;proche@legacy.com;advertise@legacy.com",twitter.com/legacyobits,facebook.com/legacycom,linkedin.com/company/legacy-com,google.com/+legacycom,pinterest.com/legacycom,,,,,,"Kim Evenson - Marketing - kevenson@legacy.com; Elaine Haney - Director - ehaney@legacy.com; Steve Parrott - President - sparrott@legacy.com; Paul Roche - President - proche@legacy.com; Craig Ziegler - President - cziegler@legacy.com; Sean Endler - President - sendler@legacy.com; Ernie Roth - President - eroth@legacy.com; Kim Vander - President - kvander@legacy.com; Mark Castrovinci - Csuite - mcastrovinci@legacy.com; Helene Donahue - Csuite - hdonahue@legacy.com",Evanston,IL,60201,US,2012-07-05,2015-12-27,2011-01-03,2015-12-27
tmz.com,tmz.com,EHM Productions Inc,,65,683,"ph:+1-818-977-0018","liz.mckernan@tmz.com;nicki.fertile@tmz.com;skypetmzlive@tmz.com;mon.@tmz.com;kristin.duffy@tmz.com;pablo88497@tmz.com;nq@tmz.com;patrick@tmz.com;tayme@tmz.com;msfs@tmz.com;cfnbop@tmz.com;kj@tmz.com;hv@tmz.com;bddm@tmz.com;mulunc@tmz.com;eeely@tmz.com;vvpudv@tmz.com;uhsd@tmz.com;dgvhnryt@tmz.com;jessica.grose@tmz.com",,,,,,,,,,,"",Burbank,CA,91522,US,2012-12-14,2015-12-27,2011-01-03,2015-12-27
people.com,people.com,PEOPLE.com,,77,583,"ph:+1-212-467-3320","editor@people.com;webmaster@people.com;insider@people.com;scoop@people.com;espanol@people.com;natasha.mak@people.com;manners@people.com;joanne32327@people.com;seams@people.com;lou@people.com;delany40@people.com;hotmail.com@people.com;dat.blessed@people.com;bus1950@people.com;laurieattendantdelarosa@people.com;reedjackson@people.com;twilight@people.com;heroesamongus@people.com;patvance@people.com;altlou@people.com",twitter.com/people,facebook.com/peoplemag,,,pinterest.com/people,,instagram.com/peoplemag,,,youtube.com/user/people,"",Tampa,FL,33612,US,2015-07-31,2015-12-09,2011-01-03,2015-12-23
reddit.com,reddit.com,reddit inc.,Technology And Computing,81,32,"ph:+1-424-234-9948","advertising@reddit.com;goldsupport@reddit.com;dmca@reddit.com;press@reddit.com;contact@reddit.com;alexis@reddit.com;neil@reddit.com;reddit@reddit.com;kristine@reddit.com;erik@reddit.com;mikecole@reddit.com;chris@reddit.com;licensing@reddit.com;colleges@reddit.com;powerlanguage@reddit.com;adriana@reddit.com;kazoofeedback@reddit.com;snoo@reddit.com;feeds@reddit.com;victoria@reddit.com",,facebook.com/redditshowerthoughts,,,,,,,,,"Michael Pope - Manager - michael@reddit.com; Tiffany Dohzen - Manager - tiffany@reddit.com",,,,,2015-04-15,2015-12-27,2011-01-03,2015-12-27
inquisitr.com,inquisitr.com,The Inquisitr News,,84,2763,"ph:","editor@inquisitr.com;advertise@inquisitr.com;tips@inquisitr.com;legal@inquisitr.com;technical@inquisitr.com;megancharles@inquisitr.com;tayla@inquisitr.com;james@inquisitr.com;nathan@inquisitr.com;dusten@inquisitr.com;patrick@inquisitr.com;david@inquisitr.com;bernadette@inquisitr.com;todd@inquisitr.com;gregory@inquisitr.com;danielm@inquisitr.com;niki@inquisitr.com;daniel@inquisitr.com;la@inquisitr.com;ames@inquisitr.com",twitter.com/theinquisitr,facebook.com/theinquisitr,,google.com/+inquisitr,,,,,,,"Patricia Grannum - Unknown - patricia@inquisitr.com; Jovianne Figueroa - Unknown - jovianne@inquisitr.com; Kevin Carneglia - Unknown - kevin@inquisitr.com; Don Crothers - Unknown - don@inquisitr.com; Sarah Russell - Unknown - sarah@inquisitr.com",,,,,2013-04-28,2015-12-26,2011-01-03,2015-12-27
dailycooking.com,dailycooking.com,dailycooking,,102,,"ph:","",,,,,,,,,,,"",,,,,2013-03-26,2015-12-26,2013-03-14,2015-12-26
nbcsports.com,nbcsports.com,NBC Sports,Sports,104,991,"ph:","nkeitharnold@nbcsports.com;keitharnold@nbcsports.com;tourhelp@nbcsports.com;liveextra@nbcsports.com;tom.curran@nbcsports.com;fivespot@nbcsports.com;mmafightweekly@nbcsports.com;golfonnbc@nbcsports.com",,,,,,,,,,,"Megan Condon - Designer - megan.condon@nbcsports.com; Bailey Garrett - Designer - bailey.garrett@nbcsports.com; Peter Damilatis - Bizdev - peter.damilatis@nbcsports.com; Lori Reitmeyer - Director - lori.reitmeyer@nbcsports.com",Stamford,CT,06901,US,2013-11-14,2015-12-09,2011-01-03,2015-12-27
sidereel.com,sidereel.com,SideReel,,124,5088,"ph:+1-415-735-5732","privacy@sidereel.com;press@sidereel.com;copyright@sidereel.com;spamsucks@sidereel.com;ruba@sidereel.com;leah@sidereel.com;sidereelzaz@sidereel.com;sidereelrachel@sidereel.com;sidereelalex@sidereel.com;joshua@sidereel.com;sidereeladam@sidereel.com;morgaine@sidereel.com;sidereelwill@sidereel.com;advertise@sidereel.com;content.owner@sidereel.com;groundwork@sidereel.com",twitter.com/sidereel,facebook.com/sidereel,,,pinterest.com/sidereel,,,,,,"Zaz Harris - Unknown - harris@sidereel.com; Davis Walden - Unknown - walden@sidereel.com; Alex Video - Manager - video@sidereel.com",San Francisco,CA,94104,US,2013-04-28,2015-12-27,2011-01-03,2015-12-27
zillow.com,zillow.com/*,Zillow Inc.,,143,208,"ph:+1-415-462-5178","dmca_notice_email@zillow.com;ir@zillow.com;postletsmobile@zillow.com;celebrity@zillow.com;brada@zillow.com;mortgageappfeedback@zillow.com;iphonefeedback@zillow.com;spencer@zillow.com;mprice@zillow.com;randy@zillow.com;katiec@zillow.com;sarab@zillow.com;stan@zillow.com;multifamily@zillow.com;mortgagesales@zillow.com;hackweekideas@zillow.com;agentwebsites@zillow.com;social@zillow.com;propertymanagers@zillow.com;zacademy@zillow.com",twitter.com/zillow,facebook.com/zillow,,google.com/+zillow,,,,,,,"Jonathan Ultis - Unknown - jonathanu@zillow.com; Jennifer Chan - Unknown - jenniferc@zillow.com; TG Gallaudet - Unknown - tgg@zillow.com; Amy Burky - Unknown - amyb@zillow.com; Matt Corgan - Director - mattc@zillow.com; Susan Daimler - President - susand@zillow.com; Paul Levine - President - paull@zillow.com; Gregory Maffei - President - gregorym@zillow.com; Spencer Rascoff - Csuite - spencerr@zillow.com; David Beitel - Csuite - davidb@zillow.com",New York City,NY,10000,US,2015-02-03,2015-12-27,2011-01-03,2015-12-27
independent.co.uk,independent.co.uk,The Independent,,144,433,"ph:+44-203-6152299;+44-207-6403888","a.buncombe@independent.co.uk;a.grice@independent.co.uk;s.kelner@independent.co.uk;n.bollettieri@independent.co.uk;c.patterson@independent.co.uk;d.orr@independent.co.uk;y.alibhaibrown@independent.co.uk;s.english@independent.co.uk;sundaytravel@independent.co.uk;a.jarvis@independent.co.uk;m.sieghart@independent.co.uk;s.ogrady@independent.co.uk;j.hari@independent.co.uk;w.dean@independent.co.uk;s.tongue@independent.co.uk;top10@independent.co.uk;m.bell@independent.co.uk;d.lawson@independent.co.uk;insidelines@independent.co.uk;carchoice@independent.co.uk",twitter.com/independent,facebook.com/theindependentonline,,,,,,,,,"Steve Auckland - Director - s.auckland@independent.co.uk; Vicky Wong - Manager - v.wong@independent.co.uk; Graham Flaherty - Manager - g.flaherty@independent.co.uk",Sheffield,SYORK,S2,GB,2014-01-23,2015-12-27,2011-01-03,2015-12-27
simplyrecipes.com,simplyrecipes.com,Simply Recipes Inc,Food And Drink,162,8169,"ph:","",twitter.com/simplyrecipes,facebook.com/simplyrecipes,,google.com/+simplyrecipes,pinterest.com/simplyrecipes,,instagram.com/simplyrecipes,,,,"",,,,,2012-12-14,2015-12-26,2011-01-03,2015-12-26
potterybarn.com,potterybarn.com,Williams Sonoma Inc,Home And Garden,186,1931,"ph:+1-405-717-6139;+1-800-541-1262","international@potterybarn.com;ce@potterybarn.com;chicagorsvp@potterybarn.com;ational@potterybarn.com;rnational@potterybarn.com;incentives@potterybarn.com;vice@potterybarn.com;dhf@potterybarn.com;ice@potterybarn.com;rvice@potterybarn.com;ernational@potterybarn.com;ternational@potterybarn.com;onal@potterybarn.com;nternational@potterybarn.com;ional@potterybarn.com;nal@potterybarn.com;national@potterybarn.com;ervice@potterybarn.com;yourajerk@potterybarn.com",twitter.com/potterybarn,facebook.com/potterybarn,,,pinterest.com/potterybarn,,instagram.com/potterybarn,,,,"Alicia Harrell - Unknown - alicia@potterybarn.com; Katie Treacy - Unknown - katie@potterybarn.com; Amanda Fair - Unknown - amanda@potterybarn.com; Steven Lauer - Unknown - steven@potterybarn.com; Brianna Torres - Unknown - brianna@potterybarn.com; Suzanne Lahodny - Unknown - suzanne@potterybarn.com; Staci MacDougall - Unknown - staci@potterybarn.com; Art Smit - Unknown - art@potterybarn.com; Lindsay Huddleston - Unknown - lindsay@potterybarn.com; William Todd - Unknown - william@potterybarn.com",Calgary,AB,T2H,CA,2012-12-14,2015-12-16,2011-01-03,2015-12-16
fool.com,fool.com,Fool LLC ,Finance,238,1351,"ph:+1-703-838-3665","richardd@fool.com;awiederman@fool.com;mlewis@fool.com;asreekumar@fool.com;bbarker@fool.com;rfuhrmann@fool.com;dalew@fool.com;nkapur@fool.com;dnewman@fool.com;pmartin@fool.com;amarder@fool.com;dwilliamson@fool.com;news@fool.com;macg@fool.com;imoscovitz@fool.com;nalderman@fool.com;dkawamoto@fool.com;tomg@fool.com;dcarroll@fool.com;dcaplinger@fool.com",twitter.com/themotleyfool,facebook.com/themotleyfool,linkedin.com/company/themotleyfool,,pinterest.com/themotleyfool,,instagram.com/themotleyfoolofficial,,,youtube.com/user/themotleyfool,"",Alexandria,VA,22314,US,2014-01-23,2015-12-26,2011-01-03,2015-12-27
wagbrag.com,wagbrag.com,Wagbrag LLC ,,252,58423,"ph:+1-917-583-9663","contact@wagbrag.com",twitter.com/wagbrag,facebook.com/wagbrag,,,,,,,,,"",New York City,NY,10011,US,2013-01-06,2015-12-26,2011-04-03,2015-12-26
washingtontimes.com,washingtontimes.com,The Washington Times LLC,,280,3764,"ph:+1-202-636-3000;+1-800-277-8500","cdolan@washingtontimes.com;jszadkowski@washingtontimes.com;mstainer@washingtontimes.com;jbourantas@washingtontimes.com;cbryant@washingtontimes.com;sdinan@washingtontimes.com;letters@washingtontimes.com;jtaylor@washingtontimes.com;jmccaslin@washingtontimes.com;charper@washingtontimes.com;mlancaster@washingtontimes.com;insidethering@washingtontimes.com;dwattenberg@washingtontimes.com;dsands@washingtontimes.com;cwetzstein@washingtontimes.com;tlemke@washingtontimes.com;tblankley@washingtontimes.com;rohalloran@washingtontimes.com;mybarra@washingtontimes.com;jduin@washingtontimes.com",,,,google.com/+washingtontimes,,,,,,,"Paris France’s - President - pfrance’s@washingtontimes.com",Washington,DC,20002,US,2014-01-23,2015-12-16,2011-01-03,2015-12-16
