Domain,Location on Site,Company,Vertical,Quantcast,Alexa,Telephones,Emails,Twitter,Facebook,LinkedIn,Google,Pinterest,GitHub,Instagram,Vk,Vimeo,Youtube,People,City,State,Zip,Country,First Detected,Last Found,First Indexed,Last Indexed
traveltune.com,traveltune.com,Travel Tune,Travel,296,81234,"ph:","",twitter.com/traveltune,facebook.com/traveltune,,,,,,,,,"",Brentwood,TN,37027,US,2014-06-23,2015-12-16,2013-09-15,2015-12-26
patheos.com,patheos.com/*,Patheos Inc.,,345,1393,"ph:","feedback@patheos.com;information@patheos.com",twitter.com/patheos,facebook.com/patheos,,,,,,,,,"Luke Shanor - Sales - lshanor@patheos.com; Hillary Spragg - Sales - hspragg@patheos.com; Deborah Arca - Director - darca@patheos.com; Debbie Tull - Director - dtull@patheos.com",Denver,CO,80237,US,2014-12-22,2015-12-10,2011-01-03,2015-12-28
wably.com,wably.com,,,363,93897,"ph:","",twitter.com/wablyonline,facebook.com/wablyonline,,,,,,,,,"",Brentwood,TN,37027,US,2015-12-16,2015-12-27,2013-09-15,2015-12-27
celebritytune.com,celebritytune.com,celebritytune,Art And Entertainment,394,57680,"ph:","",twitter.com/celebritytune,,,,,,,,,,"",Brentwood,TN,37027,US,2015-12-16,2015-12-16,2014-07-30,2015-12-26
toprightnews.com,toprightnews.com,Top Right News Inc,,469,9522,"ph:","editor@toprightnews.com;ads@toprightnews.com;webmaster@toprightnews.com;tips@toprightnews.com",,,,,,,,,,,"",New York City,NY,10021,US,2014-10-08,2015-12-26,2013-12-05,2015-12-26
worldlifestyle.com,worldlifestyle.com,WorldLifestyle,,640,1379,"ph:","shareyourstory@worldlifestyle.com;press@worldlifestyle.com;info@worldlifestyle.com;legal@worldlifestyle.com",,,,,,,,,,,"Peter Zaayer - Other - peter@worldlifestyle.com",,,,,2015-12-09,2015-12-16,2013-04-28,2015-12-16
firsttoknow.com,firsttoknow.com,First to Know,,697,16718,"ph:+1-949-788-1927","jengevik@firsttoknow.com;mjehangir@firsttoknow.com;emcmahan@firsttoknow.com;privacy@firsttoknow.com",twitter.com/befirsttoknow,,,google.com/+firsttoknow-4fans,pinterest.com/firsttoknow,,,,,,"Mira Joo - Unknown - noemail; Per Ã–stling - Unknown - noemail",Tustin,CA,92782,US,2013-09-26,2015-12-27,2011-09-04,2015-12-27
bridaltune.com,bridaltune.com,Bridal Tune,,750,82334,"ph:","",twitter.com/bridaltune,facebook.com/bridaltune,,,,,,,,,"",Brentwood,TN,37027,US,2015-12-26,2015-12-26,2014-08-31,2015-12-26
techtimes.com,techtimes.com/*,Tech Times,Technology And Computing,762,3096,"ph:+1-212-858-7581","career@techtimes.com;advertise@techtimes.com;editor@techtimes.com;media@techtimes.com;business@techtimes.com;news@techtimes.com;tips@techtimes.com",twitter.com/techtimes_news,facebook.com/techtimesnews,,google.com/+techtimesnews,,,,,,,"Shiku Liyena - Director - liyena@techtimes.com; Matthew Rappaport - Director - rappaport@techtimes.com",New York City,NY,10005,US,2015-12-10,2015-12-10,2013-10-24,2015-12-16
horoscope.com,horoscope.com,Horoscope.com Inc,Hobbies And Interests,772,6380,"ph:+1-415-615-9030;+1-800-952-5210","privacy@horoscope.com;legal@horoscope.com;advertise@horoscope.com;publicidad@horoscope.com;delete@horoscope.com",twitter.com/horoscopedotcom,facebook.com/horoscopedotcom,,google.com/+horoscopedotcom,,,,,,,"Fabien Hermand - Unknown - noemail",San Francisco,CA,94108,US,2013-09-26,2015-12-26,2011-01-03,2015-12-26
enstarz.com,enstarz.com/*,Enstarz,Art And Entertainment,788,30229,"ph:","privacy-admin@enstarz.com;info@enstarz.com;web@enstarz.com;jobs@enstarz.com",twitter.com/enstars,facebook.com/enstars,,google.com/+enstarz,pinterest.com/enstars,,instagram.com/enstars#,,,youtube.com/user/enstarstv,"",New York City,NY,10004,US,2015-01-27,2015-12-10,2012-02-04,2015-12-27
latinpost.com,latinpost.com/*,LATINA MEDIA VENTURES LLC,,850,16152,"ph:+1-646-494-4482","advertising@latinpost.com;comments@latinpost.com;privacy-admin@latinpost.com;media@latinpost.com;business@latinpost.com",twitter.com/latinpost,facebook.com/latinpost,,,pinterest.com/latinamagazine,,instagram.com/latin_post,,,youtube.com/user/latinamag,"",New York City,NY,10005,US,2015-09-14,2015-12-10,2013-02-28,2015-12-27
mrconservative.com,mrconservative.com,,Law  Govt And Politics,1110,37831,"ph:","",twitter.com/mrconservative_,facebook.com/conservativegroup,,,,,,,,,"Mara Kiesling - Director - noemail; David Schwarz - President - noemail",,,,,2013-09-26,2015-12-16,2011-09-11,2015-12-16
preservefreedom.org,preservefreedom.org,preservefreedom,Finance,1319,525482,"ph:","contact@preservefreedom.org",,,,,,,,,,,"",Las Vegas,NV,89107,US,2014-10-01,2015-12-16,2013-12-19,2015-12-16
designntrend.com,designntrend.com/*,Designntrend.com inc,,2323,17573,"ph:","advertising@designntrend.com;peter.black@designntrend.com;doug.horn@designntrend.com;meg.busacca@designntrend.com;info@designntrend.com",twitter.com/designntrend,facebook.com/designntrend,,,pinterest.com/designntrend_ft,,instagram.com/designntrend,,,,"",New York City,NY,10004,US,2015-01-12,2015-12-27,2012-04-05,2015-12-27
realfarmacy.com,realfarmacy.com,,,4018,13033,"ph:","",twitter.com/realfarmacy,facebook.com/realfarmacycom,,google.com/+realfarmacy,pinterest.com/realfarmacy,,,,,,"",,,,,2014-06-15,2015-12-27,2013-05-23,2015-12-27
vcpost.com,vcpost.com/*,,,4149,20680,"ph:","info@ivcpost.com",,,,,,,,,,,"",New York City,NY,10004,US,2015-09-21,2015-12-10,2013-10-24,2015-12-27
liberty247.net,liberty247.net,,Law  Govt And Politics,4809,458490,"ph:","",,,,,,,,,,,"",Valley Cottage,NY,10989,US,2014-11-06,2015-12-16,2014-11-06,2015-12-16
survivaljoe.net,survivaljoe.net,Gambit LLC,Technology And Computing,7769,474845,"ph:","support@survivaljoe.net",twitter.com/survival_joe,facebook.com/survivaljoe,,,,,,,,,"",Grandville,MI,49418,US,2015-12-09,2015-12-16,2011-09-04,2015-12-16
investorinsider.net,investorinsider.net,investorinsider,Business And Industrial,7943,,"ph:","",,,,,,,,,,,"",Woodbury,NY,11797,US,2014-09-24,2015-12-26,2014-09-17,2015-12-26
