Domain,Location on Site,Company,Vertical,Quantcast,Alexa,Telephones,Emails,Twitter,Facebook,LinkedIn,Google,Pinterest,GitHub,Instagram,Vk,Vimeo,Youtube,People,City,State,Zip,Country,First Detected,Last Found,First Indexed,Last Indexed
usmagazine.com,usmagazine.com,Us Weekly LLC,Art And Entertainment,38,1257,"ph:+1-800-952-5210","hotstuff@usmagazine.com;giveaways@usmagazine.com;bradley.jacobs@usmagazine.com;celebshots@usmagazine.com;celebnews@usmagazine.com;letters@usmagazine.com;joey.bartolomeo@usmagazine.com;jessica.gatdula@usmagazine.com;askthepresident@usmagazine.com;christopher.svoboda@usmagazine.com;usrsvp@usmagazine.com;brad.witter@usmagazine.com;sabrina.ng@usmagazine.com;michele.goldenberg@usmagazine.com;jon.spellman@usmagazine.com;kate.solinsky@usmagazine.com;erica.shlafer@usmagazine.com;andi.rimas@usmagazine.com;nina.levine@usmagazine.com;julia.tsyvin@usmagazine.com",,,,,,,,,,,"",New York City,NY,10104,US,2015-11-21,2015-12-12,2011-01-03,2015-12-27
nydailynews.com,nydailynews.com,New York Daily News,,44,856,"ph:+1-212-210-6305;+1-855-455-9140","webmaster@nydailynews.com;legal@nydailynews.com;jkemp@nydailynews.com;lgoldberg@nydailynews.com;jlemire@nydailynews.com;eeinhorn@nydailynews.com;ckatz@nydailynews.com;badams@nydailynews.com;epearson@nydailynews.com;rschapiro@nydailynews.com;jmeek@nydailynews.com;csiemaszko@nydailynews.com;lmcshane@nydailynews.com;mmehta@nydailynews.com;rparascandola@nydailynews.com;voicers@nydailynews.com;apps@nydailynews.com;agendar@nydailynews.com;jgonzalez@nydailynews.com;lcolangelo@nydailynews.com",,,,,,,,,,,"Andrew Reale - Bizdev - areale@nydailynews.com",New York City,NY,10004,US,2015-05-06,2015-12-16,2011-01-03,2015-12-27
tmz.com,tmz.com,EHM Productions Inc,,65,683,"ph:+1-818-977-0018","liz.mckernan@tmz.com;nicki.fertile@tmz.com;skypetmzlive@tmz.com;mon.@tmz.com;kristin.duffy@tmz.com;pablo88497@tmz.com;nq@tmz.com;patrick@tmz.com;tayme@tmz.com;msfs@tmz.com;cfnbop@tmz.com;kj@tmz.com;hv@tmz.com;bddm@tmz.com;mulunc@tmz.com;eeely@tmz.com;vvpudv@tmz.com;uhsd@tmz.com;dgvhnryt@tmz.com;jessica.grose@tmz.com",,,,,,,,,,,"",Burbank,CA,91522,US,2013-11-21,2015-12-27,2011-01-03,2015-12-27
inquisitr.com,inquisitr.com,The Inquisitr News,,84,2763,"ph:","editor@inquisitr.com;advertise@inquisitr.com;tips@inquisitr.com;legal@inquisitr.com;technical@inquisitr.com;megancharles@inquisitr.com;tayla@inquisitr.com;james@inquisitr.com;nathan@inquisitr.com;dusten@inquisitr.com;patrick@inquisitr.com;david@inquisitr.com;bernadette@inquisitr.com;todd@inquisitr.com;gregory@inquisitr.com;danielm@inquisitr.com;niki@inquisitr.com;daniel@inquisitr.com;la@inquisitr.com;ames@inquisitr.com",twitter.com/theinquisitr,facebook.com/theinquisitr,,google.com/+inquisitr,,,,,,,"Patricia Grannum - Unknown - patricia@inquisitr.com; Jovianne Figueroa - Unknown - jovianne@inquisitr.com; Kevin Carneglia - Unknown - kevin@inquisitr.com; Don Crothers - Unknown - don@inquisitr.com; Sarah Russell - Unknown - sarah@inquisitr.com",,,,,2015-03-01,2015-12-10,2011-01-03,2015-12-27
uproxx.com,uproxx.com,UPROXX,Art And Entertainment,92,2145,"ph:+1-424-258-7166","brett@uproxx.com;maske@uproxx.com;chrismottram@uproxx.com;ryan@uproxx.com;jerry@uproxx.com;fo@uproxx.com;nfo@uproxx.com;withleather-tips@uproxx.com;tips@uproxx.com;filmdrunk-tips@uproxx.com;gammasquad-tips@uproxx.com;jarret@uproxx.com;kissingsuzykolber@uproxx.com;erin582@uproxx.com;ry@uproxx.com;ryan_perry@uproxx.com;ryan.perry@uproxx.com;rperry@uproxx.com;dustin_rowles@uproxx.com;dustin@uproxx.com",twitter.com/uproxx,facebook.com/uproxx,,google.com/+uproxx,pinterest.com/uproxx,,,,,,"Peter Blackburn - Manager - blackburn@uproxx.com; Justin Kaiser - Manager - kaiser@uproxx.com",Culver City,CA,90232,US,2015-10-07,2015-12-27,2011-09-11,2015-12-27
ehow.com,ehow.com,Demand Media Inc,,99,1006,"ph:+1-310-395-6249;+1-800-952-5210","contribute@ehow.com;womupu@ehow.com;tech@ehow.com;rnhealthinfo@ehow.com;jackspam@ehow.com;tvhmkwtdttjaaft@ehow.com;writers@ehow.com;virus@ehow.com;sample@ehow.com;williamsrymyiah@ehow.com",,,,,,,instagram.com/ehow_team,,,,"jon jurgens - Unknown - noemail",Santa Monica,CA,90404,US,2015-09-30,2015-12-27,2011-01-03,2015-12-27
topix.com,topix.com,Topix LLC ,,109,1240,"ph:","feedback2@topix.com;eric@topix.com;recruiter@topix.com;molly@topix.com;lhironaka@topix.com;isting@topix.com;bruce@topix.com;politix@topix.com;miquel9633@topix.com;zipcode@topix.com;steve_rubinstein@topix.com;steve@topix.com;steve.rubinstein@topix.com;srubinstein@topix.com;michael_linton@topix.com;michael@topix.com;michael.linton@topix.com;mlinton@topix.com;cheyenne@topix.com;pxmary@topix.com",,facebook.com/topix,,,,,,,,,"Mike Sawka - President - mike@topix.com; Laurie Hironaka - President - laurie@topix.com; Steve Rubinstein - Csuite - steve@topix.com; Chris Tolles - Founder - chris@topix.com",,,,,2014-11-19,2015-12-27,2011-01-03,2015-12-27
chacha.com,chacha.com,Notice ChaCha Search Inc,,118,7802,"ph:+1-317-564-3350","customer.relations@chacha.com;chachaguidebar@chacha.com;user1@chacha.com;guide1@chacha.com;usertom@chacha.com;chachatech@chacha.com;domains@chacha.com;justin.keller@chacha.com;cguide1@chacha.com;human.resources@chacha.com;mitchel02899@chacha.com;thom_geraghty@chacha.com;thom@chacha.com;thom.geraghty@chacha.com;tgeraghty@chacha.com;chris.navta@chacha.com;craig.pfeifer@chacha.com;dan.hodges@chacha.com;saritha.ravi@chacha.com;allison.eckstein@chacha.com",twitter.com/chacha,facebook.com/chacha,,,,,,,,youtube.com/user/channelchacha,"",Carmel,IN,46032,US,2013-10-13,2015-12-27,2011-01-03,2015-12-27
rollingstone.com,rollingstone.com,Rolling Stone LLC,Art And Entertainment,131,871,"ph:+1-800-633-3600","letters@rollingstone.com;rseditors@rollingstone.com;publicity@rollingstone.com;internships@rollingstone.com;support@rollingstone.com;askaboss@rollingstone.com;taibbipress@rollingstone.com;asktravers@rollingstone.com;asktaibbi@rollingstone.com;live@rollingstone.com;rsrsvp@rollingstone.com;matt.taibbi@rollingstone.com;lauren.goldstein@rollingstone.com;askdickinson@rollingstone.com;john.colapinto@rollingstone.com;david.fricke@rollingstone.com;jonathan.ringen@rollingstone.com;erica.futterman@rollingstone.com;peter.travers@rollingstone.com;hacienda@rollingstone.com",twitter.com/rollingstone,facebook.com/rollingstone,,google.com/+rollingstone,pinterest.com/rollingstone,,instagram.com/rollingstone,,,,"",New York City,NY,10104,US,2014-08-10,2015-12-26,2011-01-03,2015-12-26
radaronline.com,radaronline.com,Radar Online LLC,,163,2204,"ph:+1-212-413-6142;+1-800-633-3600","privacypolicy@radaronline.com;ldimattina@radaronline.com;spencer@radaronline.com;tips@radaronline.com;lornstein@radaronline.com;jvituscka@radaronline.com;more@radaronline.com;jgarcia@radaronline.com;ccechin@radaronline.com;nfitzsimmons@radaronline.com;mpage@radaronline.com;jheger@radaronline.com;nwoulfe@radaronline.com;munster@radaronline.com;tgray@radaronline.com;currentsubscriber@radaronline.com;kvereb@radaronline.com;atereszck@radaronline.com;bust@radaronline.com;dfairall@radaronline.com",twitter.com/radar_online,facebook.com/radaronline,,,pinterest.com/radaronline,,instagram.com/radargram,,,,"",New York City,NY,10004,US,2015-06-03,2015-12-16,2011-01-03,2015-12-16
thekitchn.com,thekitchn.com/*,Apartment Therapy LLC,Food And Drink,201,694,"ph:","kitchncure@thekitchn.com;cookingcure@thekitchn.com;emma@thekitchn.com;cambria@thekitchn.com;faith@thekitchn.com;sarakate@thekitchn.com;ariel@thekitchn.com;anjali@thekitchn.com;kelli@thekitchn.com;lauren@thekitchn.com;cure@thekitchn.com;kristin@thekitchn.com;christine@thekitchn.com;ristine@thekitchn.com",twitter.com/thekitchn,,,google.com/+thekitchn,pinterest.com/thekitchn,,instagram.com/thekitchn,,,,"Caroline Gelbard - Other - caroline@thekitchn.com; Susannah Sachdeva - Other - susannah@thekitchn.com; Grace McCaffrey - Other - grace@thekitchn.com; Adam Miller - Other - adam@thekitchn.com; Lindsay Ribe - Other - lindsay@thekitchn.com; Jonathan Sabal - Other - jonathan@thekitchn.com; Henry Chen - Other - henry@thekitchn.com; Andrew Berry - Other - andrew@thekitchn.com; Cheryl Williams - Sales - cheryl@thekitchn.com; Ariel Pietrobono - Sales - ariel@thekitchn.com",New York City,NY,10012,US,2015-09-28,2015-12-10,2011-01-03,2015-12-27
ew.com,ew.com,Entertainment Weekly Inc,Art And Entertainment,202,905,"ph:+1-212-467-3320","ew_letters@ew.com;letters@ew.com;ausielloscoop@ew.com;spoilerroom@ew.com;popwatch@ew.com;nuzhat_naoreen@ew.com;annie_barrett@ew.com;beth_jacobson@ew.com;stylehunter@ew.com;asklibby@ew.com;whatisyourdamage@ew.com;theglutton@ew.com;spoileroom@ew.com;u003eausielloscoop@ew.com;darren_franich@ew.com;ausholesunite@ew.com;u003epopwatch@ew.com;chris_nashawaty@ew.com;askthecritic@ew.com;stephanie_robbins@ew.com",,,,,pinterest.com/ewmagazine,,,,,,"",Tampa,FL,33612,US,2014-09-06,2015-12-27,2013-09-15,2015-12-27
rottentomatoes.com,rottentomatoes.com,Flixster Inc,Technology And Computing,204,538,"ph:","",twitter.com/rottentomatoes,facebook.com/rottentomatoes,,google.com/+rottentomatoes,,,,,,youtube.com/user/rottentomatoes,"",Burbank,CA,91522,US,2014-08-14,2015-12-26,2011-01-03,2015-12-26
popsugar.com,popsugar.com,POPSUGAR Inc.,,250,863,"ph:+1-415-684-7494","community@popsugar.com;copyright@popsugar.com;shopstyefr@popsugar.com;redesign@popsugar.com;musthave@popsugar.com;kstahl@popsugar.com;production@popsugar.com;samplesquad@popsugar.com;mliao@popsugar.com;advertising@popsugar.com;housetours@popsugar.com;sydney49595@popsugar.com;internjob@popsugar.com;shopsense@popsugar.com;cng@popsugar.com;popmomsjob@popsugar.com;kjohnson@popsugar.com;efr@popsugar.com;mmullarkey@popsugar.com;lmilner@popsugar.com",twitter.com/popsugar,facebook.com/popsugar,,google.com/+popsugar,pinterest.com/popsugar,,instagram.com/popsugar,,,,"Eileen Carty - President - ecarty@popsugar.com; Melissa Davis - President - mdavis@popsugar.com; David Grant - President - dgrant@popsugar.com; Anna Fieler - President - afieler@popsugar.com; Genevieve Kunst - President - gkunst@popsugar.com; Alex McNealey - President - amcnealey@popsugar.com; Sean Macnew - Csuite - smacnew@popsugar.com; Lisa Sugar - Founder - lsugar@popsugar.com; Brian Sugar - Founder - bsugar@popsugar.com; Arthur Cinader - Founder - acinader@popsugar.com",San Francisco,CA,94104,US,2015-02-25,2015-12-10,2011-01-03,2015-12-26
mademan.com,mademan.com/*,mademan.com inc,,379,19681,"ph:+1-212-244-4307","privacy@mademan.com;support@mademan.com;legal@mademan.com;abuse@mademan.com",twitter.com/mademan,facebook.com/mademan.com,,,,,instagram.com/mademandotcom,,,,"",New York City,NY,10018,US,2013-09-26,2015-12-10,2011-01-03,2015-12-26
mensfitness.com,mensfitness.com,Weider Publications LLC,,437,3129,"ph:+1-212-743-6590;+1-800-955-2292","asklenny@mensfitness.com;askian@mensfitness.com;cperry@mensfitness.com;askcandice@mensfitness.com;askshorty@mensfitness.com;hottie@mensfitness.com;transformation@mensfitness.com;sramsamooj@mensfitness.com;bradding@mensfitness.com;askamber@mensfitness.com;raiseyourgame@mensfitness.com;yourworkout@mensfitness.com;kfox@mensfitness.com;asksean@mensfitness.com",twitter.com/mensfitness,facebook.com/mensfitness,,google.com/+mensfitness,,,,,,,"",New York City,NY,10004,US,2015-08-26,2015-12-16,2011-01-03,2015-12-16
fishwrapper.com,fishwrapper.com,EHM Productions Inc,Technology And Computing,530,8353,"ph:+1-818-977-0018","",twitter.com/fishwrapped,facebook.com/fishwrapped,,,,,,,,,"",Burbank,CA,91522,US,2013-07-19,2015-12-16,2013-06-06,2015-12-27
whatculture.com,whatculture.com,What Culture,Art And Entertainment,770,2418,"ph:","editor@whatculture.com;joseph@whatculture.com;rhys@whatculture.com;peter@whatculture.com;sara@whatculture.com;simon@whatculture.com;dan.powell@whatculture.com",twitter.com/whatculture,facebook.com/whatculture,,,,,,,,,"Fred Humphries - Unknown - fred@whatculture.com; Peter Willis - Unknown - peter@whatculture.com; Jamie Bassett - Unknown - jamie@whatculture.com; Tom Beasley - Unknown - tom@whatculture.com; Michael Russo - Unknown - michael@whatculture.com",Newcastle upon Tyne,TYNE,NE1,GB,2014-01-16,2015-12-26,2011-09-11,2015-12-27
popcrush.com,popcrush.com/*,PopCrush,Art And Entertainment,950,34484,"ph:","staff@popcrush.com;lisa@popcrush.com;lisapaige@popcrush.com;jacob-severn@popcrush.com;mary-ouellette@popcrush.com;scott-shetler@popcrush.com;trent-fitzgerald@popcrush.com;alexandra-capotorto@popcrush.com;spencer-kaufman@popcrush.com;kat-lee@popcrush.com;jessica-sager@popcrush.com;nadine-cheung@popcrush.com;popcrush-staff@popcrush.com;sam-lansky@popcrush.com;ff@popcrush.com;paul-cantor@popcrush.com;taff@popcrush.com;aff@popcrush.com;cassandra-rose@popcrush.com;bradley@popcrush.com",twitter.com/popcrush,facebook.com/popcrush,,,,,instagram.com/popcrush,,,youtube.com/user/popcrushmusic,"",,,,,2013-12-05,2015-12-10,2011-09-04,2015-12-26
pillsbury.com,pillsbury.com/*,General Mills Inc,Food And Drink,966,6286,"ph:+1-763-764-7600;+1-800-381-0759","smallery@pillsbury.com;hfelt@pillsbury.com;klamont@pillsbury.com;l35n@pillsbury.com;jmottola@pillsbury.com;dshay@pillsbury.com;cphillip@pillsbury.com;rarrow@pillsbury.com;jheineman@pillsbury.com;dcc@pillsbury.com;jmoreira@pillsbury.com;jrechek@pillsbury.com;bbailey@pillsbury.com;kbuck@pillsbury.com;gmicka@pillsbury.com;tpeake@pillsbury.com;dick_colley@pillsbury.com;dick@pillsbury.com;dick.colley@pillsbury.com;dcolley@pillsbury.com",twitter.com/pillsbury,facebook.com/pillsbury,,,pinterest.com/pillsbury,,instagram.com/pillsbury,,,youtube.com/user/pillsburyhome,"Chad Erickson - Other - cerickson@pillsbury.com",Minneapolis,MN,55440,US,2014-10-12,2015-12-10,2011-01-03,2015-12-27
